P/2016 P1 (PANSTARRS),e,24.3610,319.3408,270.8150,3.202203,0.1720010,0.28891691,142.3230,09/17.0/2023,2000,g 15.0,4.0
# From MPEC 2023-R20
C/2016 Q2 (PANSTARRS),h,05/12.4321/2021,109.3713,322.3223,84.5583,1.003289,7.081529,2000,6.0,4.0
# From MPEC 2023-J95
C/2016 Q4 (Kowalski),e,7.2420,271.2920,99.8357,17.05196,0.0139972,0.58348910,28.7320,09/17.0/2023,2000,g  7.0,4.0
# From MPEC 2021-N06
C/2016 R2 (PANSTARRS),e,58.3701,80.4989,33.0897,487.0714,0.0000917,0.99467300,0.0000,05/09.6397/2018,2000,g  7.0,4.0
# From MPEC 2022-K19
P/2016 R4 (Gibbs),e,10.8747,168.2611,174.1524,5.333652,0.0800142,0.47585184,208.8892,09/17.0/2023,2000,g 12.5,4.0
# From MPC105543
P/2016 S1 (PANSTARRS),e,94.7387,227.6750,273.2289,8.273441,0.0414166,0.71081212,98.3360,09/17.0/2023,2000,g 12.0,4.0
# From MPC106345
P/2016 WM48 (Lemmon),e,117.6193,59.9474,36.1637,8.171655,0.0421929,0.78354167,101.0899,09/17.0/2023,2000,g 15.0,4.0
# From MPEC 2021-P47
C/2016 X1 (Lemmon),e,26.4639,256.3197,224.4999,1540,0.0000163,0.99509518,0.0000,04/28.3173/2019,2000,g  6.0,4.0
# From MPEC 2022-OB6
C/2017 B3 (LINEAR),e,54.1663,2.1816,284.8361,20240,0.0000003,0.99980572,0.0000,01/31.7402/2019,2000,g  6.0,4.0
# From MPC103847
P/2017 B4 (PANSTARRS),e,20.0584,121.4578,11.0197,4.410520,0.1064068,0.36495152,359.9130,01/05.0/2017,2000,g 14.5,4.0
# From MPEC 2022-OB6
P/2017 D1 (Fuls),e,20.7710,82.1964,7.9628,4.826553,0.0929498,0.43734889,245.4810,09/17.0/2023,2000,g 14.0,4.0
# From MPEC 2022-OB6
P/2017 D4 (PANSTARRS),e,10.5577,264.9546,212.0880,7.545468,0.0475527,0.62952792,122.0535,09/17.0/2023,2000,g 13.0,4.0
# From MPC104794
P/2017 G1 (PANSTARRS),e,4.7875,249.7003,224.3034,7.272550,0.0502544,0.65429968,135.5593,09/17.0/2023,2000,g 13.5,4.0
# From MPC108595
P/2017 G2 (PANSTARRS),e,47.9656,79.8733,105.3358,8.046240,0.0431832,0.64771473,98.9389,09/17.0/2023,2000,g 13.0,4.0
# From MPEC 2023-R20
C/2017 K2 (PANSTARRS),h,12/19.6827/2022,87.5645,88.2348,236.2034,1.000710,1.797161,2000,1.5,4.0
# From MPEC 2021-N06
P/2017 K3 (Gasparovic),e,4.2736,354.3051,253.3663,5.585091,0.0746722,0.57889778,172.1171,09/17.0/2023,2000,g 14.5,4.0
# From MPEC 2021-P47
C/2017 K5 (PANSTARRS),h,03/27.1515/2020,82.2675,102.4068,172.0605,1.004798,7.684168,2000,5.0,4.0
# From MPEC 2022-OB6
C/2017 M4 (ATLAS),h,01/17.9538/2019,105.6296,66.0024,167.5671,1.001010,3.248203,2000,6.0,4.0
# From MPC118841
C/2017 M5 (TOTAS),h,06/03.4147/2018,15.8583,216.2873,92.8929,1.004418,6.010022,2000,6.5,4.0
# From MPC114599
P/2017 P1 (PANSTARRS),e,7.6883,221.3516,122.8561,7.917943,0.0442370,0.31042583,84.5753,09/17.0/2023,2000,g 10.0,4.0
# From MPC114599
C/2017 S3 (PANSTARRS),h,08/17.0513/2018,99.1444,171.1885,255.7436,1.000097,0.203502,2000,12.9,4.0
# From MPEC 2022-OB6
P/2017 S8 (PANSTARRS),e,29.8481,191.5191,254.8732,2.778646,0.2127915,0.39093571,78.0386,09/17.0/2023,2000,g 16.0,4.0
# From MPEC 2022-YN2
C/2017 T2 (PANSTARRS),e,57.2826,64.4365,92.8730,1492,0.0000171,0.99891974,0.0000,05/04.9539/2020,2000,g  5.0,4.0
# From MPC114600
C/2017 T3 (ATLAS),e,88.2984,230.2648,246.7728,1333,0.0000202,0.99938390,0.0000,07/19.7328/2018,2000,g 10.0,4.0
# From MPC115882
P/2017 TW13 (Lemmon),e,44.8533,322.2140,119.9299,7.134757,0.0517172,0.71058070,98.9105,09/17.0/2023,2000,g 15.0,2.0
# From MPEC 2022-K19
P/2017 U3 (PANSTARRS),e,15.9177,165.0978,296.2068,4.922999,0.0902318,0.10005921,146.0635,09/17.0/2023,2000,g 11.0,4.0
# From MPEC 2023-CD7
C/2017 U4 (PANSTARRS),e,158.1995,245.8992,158.9906,5982,0.0000021,0.99870802,0.0000,09/21.1838/2018,2000,g  7.0,4.0
# From MPEC 2023-A50
C/2017 U7 (PANSTARRS),h,09/15.7408/2019,142.6240,276.2850,326.4573,1.002234,6.428452,2000,8.3,2.0
# From MPC114601
P/2017 W3 (Gibbs),e,18.1711,210.1764,327.7890,7.827117,0.0450092,0.50632884,91.3182,09/17.0/2023,2000,g 10.5,4.0
# From MPEC 2021-R75
C/2017 X1 (PANSTARRS),e,31.3489,251.1717,283.0625,30.94994,0.0057242,0.84946617,10.9971,09/17.0/2023,2000,g 10.0,4.0
# From MPEC 2022-QD9
C/2017 Y2 (PANSTARRS),h,11/05.1448/2020,128.4447,66.0250,147.9278,1.001574,4.631236,2000,15.0,4.0
# From MPC111770
P/2017 Y3 (Leonard),e,27.5774,153.8864,67.5317,9.812553,0.0320650,0.86932214,65.6506,09/17.0/2023,2000,g 16.5,4.0
# From MPEC 2021-P47
C/2018 A3 (ATLAS),e,139.5460,194.2994,86.3677,352.1440,0.0001492,0.99068128,0.0000,01/10.1488/2019,2000,g  8.5,4.0
# From MPEC 2023-J29
C/2018 A4 (PANSTARRS),e,3.1518,97.5623,355.9573,12.18786,0.0231640,0.80415316,45.0722,09/17.0/2023,2000,g 14.0,4.0
# From MPC109147
P/2018 A5 (PANSTARRS),e,23.6214,87.7862,359.4908,5.626932,0.0738408,0.52385591,161.1676,09/17.0/2023,2000,g 15.0,4.0
# From MPEC 2022-ST7
C/2018 A6 (Gibbs),e,77.0780,340.3932,264.3328,15.02728,0.0169193,0.79912603,25.8701,09/17.0/2023,2000,g  9.0,4.0
# From MPC114601
P/2018 C1 (Lemmon-Read),e,5.1088,270.3064,235.7008,5.651717,0.0733556,0.53210362,149.0515,09/17.0/2023,2000,g 13.5,4.0
# From MPC114601
C/2018 C2 (Lemmon),e,34.4627,91.3109,133.9299,6625,0.0000018,0.99970422,0.0000,05/30.7804/2018,2000,g 13.0,4.0
# From MPEC 2022-M88
C/2018 DO4 (Lemmon),e,160.4445,251.4284,176.3268,25.33739,0.0077279,0.90464292,11.5334,09/17.0/2023,2000,g 11.0,4.0
# From MPC114602
C/2018 E1 (ATLAS),e,72.4880,146.7920,299.2738,53.89712,0.0024909,0.95010030,4.9256,09/17.0/2023,2000,g 10.5,4.0
# From MPC114602
C/2018 EN4 (NEOWISE),e,81.9879,136.1327,35.0017,17.88588,0.0130298,0.91833116,25.1913,09/17.0/2023,2000,g 15.0,4.0
# From MPEC 2023-CD7
C/2018 EF9 (Lemmon),e,84.6537,172.5795,72.6415,433.9058,0.0001090,0.99639625,0.0000,05/20.4630/2018,2000,g 18.0,2.0
# From MPEC 2021-R75
C/2018 F1 (Grauer),e,46.0915,177.2804,71.5604,231.7327,0.0002794,0.98706584,0.0000,12/11.2357/2018,2000,g 11.5,4.0
# From MPEC 2023-A50
C/2018 F4 (PANSTARRS),e,78.0827,26.5152,263.2120,3553,0.0000047,0.99903029,0.0000,12/02.4967/2019,2000,g 11.0,6.0
# From MPEC 2021-Y10
C/2018 F4-A,e,78.0829,26.5154,263.2088,3369,0.0000050,0.99897733,0.0000,12/02.4849/2019,2000,g 11.0,6.0
# From MPEC 2023-D41
C/2018 F4-B,e,78.0839,26.5149,263.1946,3689,0.0000044,0.99906612,0.0000,12/02.4216/2019,2000,g 11.0,6.0
# From MPC114602
P/2018 H2 (PANSTARRS),e,7.4509,67.6007,120.0662,4.389265,0.1071807,0.54165405,222.8641,09/17.0/2023,2000,g 16.6,2.0
# From MPEC 2021-R75
C/2018 KJ3 (Lemmon),e,136.6534,91.6716,217.6374,893.9633,0.0000369,0.99594602,0.0000,09/09.9197/2019,2000,g 12.2,2.0
# From MPC114602
P/2018 L1 (PANSTARRS),e,10.5764,268.5995,18.0275,3.654806,0.1410612,0.48148879,249.8496,09/17.0/2023,2000,g 15.0,4.0
# From MPEC 2021-P47
C/2018 L2 (ATLAS),e,67.2205,242.9899,56.3421,252.1316,0.0002462,0.99318654,0.0000,12/01.6500/2018,2000,g 10.0,4.0
# From MPC114603
P/2018 L4 (PANSTARRS),e,26.6092,145.1943,140.5980,4.946528,0.0895887,0.65864480,167.9954,09/17.0/2023,2000,g 17.5,4.0
# From MPC119996
P/2018 L5 (Leonard),e,2.2093,219.0306,93.9683,3.629090,0.1425632,0.36401388,279.4708,09/17.0/2023,2000,g 14.5,4.0
# From MPC117070
C/2018 M1 (Catalina),e,37.2520,339.4329,14.2726,21.53570,0.0098620,0.93926704,18.6799,09/17.0/2023,2000,g 15.5,4.0
# From MPEC 2022-M21
C/2018 N1 (NEOWISE),e,159.3895,292.5882,354.7479,520.1630,0.0000831,0.99748857,0.0000,08/03.4130/2018,2000,g 15.5,4.0
# From MPEC 2022-YN2
C/2018 N2 (ASASSN),h,11/11.6034/2019,77.5562,25.2019,24.5246,1.001317,3.129721,2000,6.0,4.0
# From MPC114603
C/2018 O1 (ATLAS),e,153.9818,87.8386,162.7189,28.08791,0.0066210,0.94464157,12.1892,09/17.0/2023,2000,g 17.0,4.0
# From MPEC 2023-J29
P/2018 P3 (PANSTARRS),e,8.9149,59.1605,306.0104,3.003741,0.1893260,0.41715003,340.9272,09/17.0/2023,2000,g 14.5,4.0
# From MPC114603
P/2018 P4 (PANSTARRS),e,23.1034,353.0724,8.4953,6.688364,0.0569802,0.45031665,101.0141,09/17.0/2023,2000,g 12.0,4.0
# From MPEC 2021-P47
C/2018 P5 (PANSTARRS),e,7.2462,216.1862,132.0438,12.85164,0.0213927,0.64272347,35.5541,09/17.0/2023,2000,g 11.0,4.0
# From MPC118841
C/2018 R3 (Lemmon),e,69.7008,324.5315,112.7419,1605,0.0000153,0.99920116,0.0000,06/08.0226/2019,2000,g  9.5,4.0
# From MPC114603
C/2018 R5 (Lemmon),e,103.7393,171.1355,178.2591,22.94089,0.0089699,0.84152721,15.3434,09/17.0/2023,2000,g 11.5,4.0
# From MPEC 2022-QC6
C/2018 S2 (TESS),e,64.1346,85.0867,290.8605,14.36521,0.0181024,0.61868992,32.1363,09/17.0/2023,2000,g  7.5,4.0
# From MPEC 2023-N01
C/2018 U1 (Lemmon),h,11/03.0338/2021,108.3223,75.5019,180.4624,1.001383,4.992186,2000,5.0,4.0
# From MPC114604
C/2018 V1 (Machholz-Fujikawa-Iwamoto),h,12/02.9158/2018,144.1255,129.2053,89.2534,1.000384,0.391489,2000,12.0,4.0
# From MPC115884
C/2018 V2 (ATLAS),e,159.1673,357.0967,319.0903,25.11341,0.0078315,0.90090100,13.7577,09/17.0/2023,2000,g 15.0,4.0
# From MPEC 2023-CD7
P/2018 VN2 (Leonard),e,18.2599,226.4415,138.9083,4.061799,0.1204000,0.47863995,231.9897,09/17.0/2023,2000,g 15.0,4.0
# From MPEC 2022-VC5
A/2018 V3,e,164.9519,308.7323,3.6173,128.3834,0.0006775,0.98957157,0.0000,09/09.5942/2019,2000,g 15.7,2.0
# From MPEC 2022-M21
C/2018 V4 (Africano),e,69.0415,78.2508,359.9801,204.1828,0.0003378,0.98434663,0.0000,03/01.7141/2019,2000,g 12.5,4.0
# From MPEC 2021-P47
P/2018 V5 (Trujillo-Sheppard),e,10.5869,171.2829,260.7091,8.965456,0.0367152,0.47582781,66.3970,09/17.0/2023,2000,g 12.5,4.0
# From MPEC 2021-P47
C/2018 W1 (Catalina),e,83.4023,233.6808,251.1885,21.69855,0.0097512,0.93745972,15.4916,09/17.0/2023,2000,g 15.5,2.0
# From MPEC 2021-P47
C/2018 W2 (Africano),h,09/05.2984/2019,116.6167,181.8372,158.1234,1.000704,1.463251,2000,9.5,4.0
# From MPEC 2023-M14
A/2018 W3,e,104.8301,251.6806,313.9572,714.4439,0.0000516,0.99399566,0.0000,04/13.0785/2021,2000,g 10.7,2.0
# From MPC119996
C/2018 X2 (Fitzsimmons),e,23.0776,340.7775,161.9359,139.0098,0.0006014,0.98476594,0.0000,07/08.4719/2019,2000,g 12.0,4.0
# From MPC114604
C/2018 X3 (PANSTARRS),e,43.4252,78.8037,359.7722,12.38194,0.0226215,0.78269527,38.9189,09/17.0/2023,2000,g 14.5,4.0
# From MPEC 2023-HD1
C/2018 Y1 (Iwamoto),e,160.4240,147.4550,357.8855,128.4163,0.0006773,0.98999562,0.0000,02/05.3117/2019,2000,g  9.0,4.0
# From MPC114605
P/2018 Y2 (Africano),e,11.6867,297.1791,162.2549,7.453007,0.0484403,0.47954682,83.2498,09/17.0/2023,2000,g 11.5,4.0
# From MPC114605
